{
  "type": "FeatureCollection",
  "features": [
    {
      "type": "Feature",
      "properties": {
        "norad_id": 30274,
        "name": "FENGYUN 1C DEB",
        "group": "fengyun-1c-debris",
        "lat": 60.3468441929851,
        "lon": 115.12346482655612,
        "alt_km": 715.154551258317,
        "timestamp": "2025-12-27T14:26:30.796853+00:00",
        "meta_object_name": "FENGYUN 1C DEB",
        "meta_object_id": "1999-025YK",
        "meta_epoch": "2025-12-27T03:24:11.919168",
        "meta_mean_motion": 14.51915258,
        "meta_eccentricity": 0.00046111,
        "meta_inclination": 99.3015,
        "meta_ra_of_asc_node": 131.3456,
        "meta_arg_of_pericenter": 184.3608,
        "meta_mean_anomaly": 354.7529,
        "meta_ephemeris_type": 0,
        "meta_classification_type": "U",
        "meta_norad_cat_id": 30274,
        "meta_element_set_no": 999,
        "meta_rev_at_epoch": 98419,
        "meta_bstar": 0.003196199,
        "meta_mean_motion_dot": 0.00012861,
        "meta_mean_motion_ddot": 0,
        "tle_line1": "1 30274U 99025YK  25361.14180462  .00012861  00000+0  31962-2 0  9994",
        "tle_line2": "2 30274  99.3015 131.3456 0004611 184.3608 354.7529 14.51915258984197"
      },
      "geometry": {
        "type": "Point",
        "coordinates": [
          115.12346482655612,
          60.3468441929851
        ]
      }
    },
    {
      "type": "Feature",
      "properties": {
        "norad_id": 30275,
        "name": "FENGYUN 1C DEB",
        "group": "fengyun-1c-debris",
        "lat": 31.175319120750224,
        "lon": 80.83266446774469,
        "alt_km": 748.9332199067121,
        "timestamp": "2025-12-27T14:26:30.796863+00:00",
        "meta_object_name": "FENGYUN 1C DEB",
        "meta_object_id": "1999-025YL",
        "meta_epoch": "2025-12-27T04:28:03.469728",
        "meta_mean_motion": 14.45511353,
        "meta_eccentricity": 0.00395577,
        "meta_inclination": 98.6262,
        "meta_ra_of_asc_node": 85.6802,
        "meta_arg_of_pericenter": 144.7126,
        "meta_mean_anomaly": 245.9377,
        "meta_ephemeris_type": 0,
        "meta_classification_type": "U",
        "meta_norad_cat_id": 30275,
        "meta_element_set_no": 999,
        "meta_rev_at_epoch": 98293,
        "meta_bstar": 0.0026199475,
        "meta_mean_motion_dot": 9.293e-05,
        "meta_mean_motion_ddot": 0,
        "tle_line1": "1 30275U 99025YL  25361.18615127  .00009293  00000+0  26199-2 0  9991",
        "tle_line2": "2 30275  98.6262  85.6802 0039557 144.7126 245.9377 14.45511353982935"
      },
      "geometry": {
        "type": "Point",
        "coordinates": [
          80.83266446774469,
          31.175319120750224
        ]
      }
    },
    {
      "type": "Feature",
      "properties": {
        "norad_id": 30276,
        "name": "FENGYUN 1C DEB",
        "group": "fengyun-1c-debris",
        "lat": 72.5359527804911,
        "lon": 43.644803928121334,
        "alt_km": 779.1705346127947,
        "timestamp": "2025-12-27T14:26:30.796873+00:00",
        "meta_object_name": "FENGYUN 1C DEB",
        "meta_object_id": "1999-025YM",
        "meta_epoch": "2025-12-27T03:59:52.053216",
        "meta_mean_motion": 14.27111556,
        "meta_eccentricity": 0.00237403,
        "meta_inclination": 98.8584,
        "meta_ra_of_asc_node": 72.9202,
        "meta_arg_of_pericenter": 49.3323,
        "meta_mean_anomaly": 310.9915,
        "meta_ephemeris_type": 0,
        "meta_classification_type": "U",
        "meta_norad_cat_id": 30276,
        "meta_element_set_no": 999,
        "meta_rev_at_epoch": 97736,
        "meta_bstar": 0.0014404698,
        "meta_mean_motion_dot": 3.478e-05,
        "meta_mean_motion_ddot": 0,
        "tle_line1": "1 30276U 99025YM  25361.16657469  .00003478  00000+0  14405-2 0  9991",
        "tle_line2": "2 30276  98.8584  72.9202 0023740  49.3323 310.9915 14.27111556977367"
      },
      "geometry": {
        "type": "Point",
        "coordinates": [
          43.644803928121334,
          72.5359527804911
        ]
      }
    },
    {
      "type": "Feature",
      "properties": {
        "norad_id": 30277,
        "name": "FENGYUN 1C DEB",
        "group": "fengyun-1c-debris",
        "lat": 33.849442484648655,
        "lon": -101.59845573367451,
        "alt_km": 756.3081464025454,
        "timestamp": "2025-12-27T14:26:30.796883+00:00",
        "meta_object_name": "FENGYUN 1C DEB",
        "meta_object_id": "1999-025YN",
        "meta_epoch": "2025-12-26T23:18:12.081024",
        "meta_mean_motion": 14.13648767,
        "meta_eccentricity": 0.0123931,
        "meta_inclination": 98.9713,
        "meta_ra_of_asc_node": 71.6869,
        "meta_arg_of_pericenter": 137.9482,
        "meta_mean_anomaly": 39.0977,
        "meta_ephemeris_type": 0,
        "meta_classification_type": "U",
        "meta_norad_cat_id": 30277,
        "meta_element_set_no": 999,
        "meta_rev_at_epoch": 96990,
        "meta_bstar": 0.0013803,
        "meta_mean_motion_dot": 2.76e-05,
        "meta_mean_motion_ddot": 0,
        "tle_line1": "1 30277U 99025YN  25360.97097316  .00002760  00000+0  13803-2 0  9993",
        "tle_line2": "2 30277  98.9713  71.6869 0123931 137.9482  39.0977 14.13648767969903"
      },
      "geometry": {
        "type": "Point",
        "coordinates": [
          -101.59845573367451,
          33.849442484648655
        ]
      }
    },
    {
      "type": "Feature",
      "properties": {
        "norad_id": 30279,
        "name": "FENGYUN 1C DEB",
        "group": "fengyun-1c-debris",
        "lat": 54.43855241321588,
        "lon": 129.9421517929528,
        "alt_km": 817.286642104742,
        "timestamp": "2025-12-27T14:26:30.796894+00:00",
        "meta_object_name": "FENGYUN 1C DEB",
        "meta_object_id": "1999-025YQ",
        "meta_epoch": "2025-12-27T02:08:36.879936",
        "meta_mean_motion": 14.2316782,
        "meta_eccentricity": 0.02196026,
        "meta_inclination": 99.1515,
        "meta_ra_of_asc_node": 296.3781,
        "meta_arg_of_pericenter": 31.8155,
        "meta_mean_anomaly": 346.2025,
        "meta_ephemeris_type": 0,
        "meta_classification_type": "U",
        "meta_norad_cat_id": 30279,
        "meta_element_set_no": 999,
        "meta_rev_at_epoch": 97815,
        "meta_bstar": 0.0011987567,
        "meta_mean_motion_dot": 3.421e-05,
        "meta_mean_motion_ddot": 0,
        "tle_line1": "1 30279U 99025YQ  25361.08931574  .00003421  00000+0  11988-2 0  9998",
        "tle_line2": "2 30279  99.1515 296.3781 0219602  31.8155 346.2025 14.23167820978158"
      },
      "geometry": {
        "type": "Point",
        "coordinates": [
          129.9421517929528,
          54.43855241321588
        ]
      }
    },
    {
      "type": "Feature",
      "properties": {
        "norad_id": 30280,
        "name": "FENGYUN 1C DEB",
        "group": "fengyun-1c-debris",
        "lat": 6.10544218615896,
        "lon": -10.599283163511238,
        "alt_km": 889.302586162481,
        "timestamp": "2025-12-27T14:26:30.796904+00:00",
        "meta_object_name": "FENGYUN 1C DEB",
        "meta_object_id": "1999-025YR",
        "meta_epoch": "2025-12-26T21:31:44.495328",
        "meta_mean_motion": 13.98334547,
        "meta_eccentricity": 0.0079774,
        "meta_inclination": 98.7756,
        "meta_ra_of_asc_node": 349.6733,
        "meta_arg_of_pericenter": 290.0455,
        "meta_mean_anomaly": 129.832,
        "meta_ephemeris_type": 0,
        "meta_classification_type": "U",
        "meta_norad_cat_id": 30280,
        "meta_element_set_no": 999,
        "meta_rev_at_epoch": 96604,
        "meta_bstar": 0.00019766,
        "meta_mean_motion_dot": 2.47e-06,
        "meta_mean_motion_ddot": 0,
        "tle_line1": "1 30280U 99025YR  25360.89704277  .00000247  00000+0  19766-3 0  9992",
        "tle_line2": "2 30280  98.7756 349.6733 0079774 290.0455 129.8320 13.98334547966048"
      },
      "geometry": {
        "type": "Point",
        "coordinates": [
          -10.599283163511238,
          6.10544218615896
        ]
      }
    },
    {
      "type": "Feature",
      "properties": {
        "norad_id": 30281,
        "name": "FENGYUN 1C DEB",
        "group": "fengyun-1c-debris",
        "lat": 23.649068944870148,
        "lon": 174.8986340117507,
        "alt_km": 840.8893404789442,
        "timestamp": "2025-12-27T14:26:30.796915+00:00",
        "meta_object_name": "FENGYUN 1C DEB",
        "meta_object_id": "1999-025YS",
        "meta_epoch": "2025-12-27T05:15:33.611328",
        "meta_mean_motion": 14.10486695,
        "meta_eccentricity": 0.00284504,
        "meta_inclination": 98.7582,
        "meta_ra_of_asc_node": 350.6551,
        "meta_arg_of_pericenter": 195.1282,
        "meta_mean_anomaly": 179.3272,
        "meta_ephemeris_type": 0,
        "meta_classification_type": "U",
        "meta_norad_cat_id": 30281,
        "meta_element_set_no": 999,
        "meta_rev_at_epoch": 97425,
        "meta_bstar": 0.00022165007,
        "meta_mean_motion_dot": 3.53e-06,
        "meta_mean_motion_ddot": 0,
        "tle_line1": "1 30281U 99025YS  25361.21913902  .00000353  00000+0  22165-3 0  9992",
        "tle_line2": "2 30281  98.7582 350.6551 0028450 195.1282 179.3272 14.10486695974259"
      },
      "geometry": {
        "type": "Point",
        "coordinates": [
          174.8986340117507,
          23.649068944870148
        ]
      }
    }
  ]
}